EARTHCARE               
1 59908U 24101A   24261.33116882  .00053878  00000+0  74810-3 0  9999
2 59908  96.9897  27.0291 0004566 120.5476 239.6231 15.56848245 17314
